ISS (ZARYA)             
1 25544U 98067A   26169.47955539  .00008910  00000+0  16794-3 0  9998
2 25544  51.6334 293.6965 0004755 201.5062 158.5728 15.49298053571950
OSCAR 7 (AO-7)          
1 07530U 74089B   26169.52022299 -.00000050  00000+0 -20354-4 0  9992
2 07530 101.9899 182.7808 0012587 127.6096  27.1345 12.53698129360683
PHASE 3B (AO-10)        
1 14129U 83058B   26168.36952042  .00000190  00000+0  00000+0 0  9993
2 14129  25.9123 219.5345 6010777 115.7182 316.6307  2.05868747295495
UOSAT 2 (UO-11)         
1 14781U 84021B   26169.63090029  .00000953  00000+0  10259-3 0  9995
2 14781  97.8058 135.1893 0007790 167.6265 192.5146 14.90786318257342
LUSAT (LO-19)           
1 20442U 90005G   26169.50756887  .00000077  00000+0  44240-4 0  9997
2 20442  98.8849 191.3496 0011194 197.0729 163.0080 14.34123547902580
EYESAT A (AO-27)        
1 22825U 93061C   26169.67804800  .00000072  00000+0  44468-4 0  9993
2 22825  98.6880 237.0911 0009544  95.9420 264.2850 14.30942642707213
ITAMSAT (IO-26)         
1 22826U 93061D   26169.44730699  .00000077  00000+0  45886-4 0  9993
2 22826  98.6829 236.7780 0010060  81.6233 278.6090 14.31369493707499
RADIO ROSTO (RS15)      
1 23439U 94085A   26169.62369556 -.00000041  00000+0  42691-4 0  9994
2 23439  64.8186 300.8928 0155980   3.6110 356.5903 11.27583454296069
JAS-2 (FO-29)           
1 24278U 96046B   26169.05046237 -.00000003  00000+0  30027-4 0  9998
2 24278  98.5238  17.8043 0350914  94.1986 269.9331 13.53274469473283
TECHSAT 1B (GO-32)      
1 25397U 98043D   26169.67997870  .00000036  00000+0  35731-4 0  9998
2 25397  99.0067 162.4763 0001133 159.7014 200.4209 14.24428642451546
PCSAT (NO-44)           
1 26931U 01043C   26169.48637696  .00000076  00000+0  59455-4 0  9996
2 26931  67.0504 240.9116 0006080 264.6354  95.4054 14.31956504290637
SAUDISAT 1C (SO-50)     
1 27607U 02058C   26169.36907802  .00000788  00000+0  11046-3 0  9993
2 27607  64.5511 125.3282 0075194 262.2562  97.0002 14.83049237264630
CUTE-1 (CO-55)          
1 27844U 03031E   26169.02064842  .00000221  00000+0  11471-3 0  9993
2 27844  98.6736 177.5689 0009609 175.5784 184.5482 14.24336174191794
CUBESAT XI-IV (CO-57)   
1 27848U 03031J   26168.93924090  .00000186  00000+0  10079-3 0  9999
2 27848  98.6765 177.2007 0009073 194.7196 165.3719 14.23621196191482
MOZHAETS 4 (RS22)       
1 27939U 03042A   26169.77341528  .00001088  00000+0  17574-3 0  9993
2 27939  98.3464 354.1766 0009914 264.1239 154.0055 14.73470910215787
CUBESAT XI-V            
1 28895U 05043F   26168.94617719  .00001113  00000+0  18286-3 0  9994
2 28895  98.2987 324.5839 0013704 198.2082 161.8635 14.72633352101868
CUTE-1.7+APD II (CO-65) 
1 32785U 08021C   26169.70716628  .00004368  00000+0  27673-3 0  9995
2 32785  97.8275 151.1573 0009595  34.0332 326.1510 15.09462529985420
SEEDS II (CO-66)        
1 32791U 08021J   26169.44123302  .00014056  00000+0  44622-3 0  9992
2 32791  97.7517 167.3987 0000890 357.5135   2.6101 15.32786684987483
YUBILEINY (RS30)        
1 32953U 08025A   26169.78850140 -.00000016  00000+0 -18711-3 0  9993
2 32953  82.5037 354.4435 0018799 310.2288  49.7147 12.43179339819894
KKS-1 (KISEKI)          
1 33499U 09002H   26169.60592050  .00001016  00000+0  13150-3 0  9990
2 33499  98.1189  92.0707 0006465 290.4012  69.6506 14.83127144936409
SWISSCUBE               
1 35932U 09051B   26169.26333948  .00000756  00000+0  15894-3 0  9996
2 35932  98.4034  77.1704 0006031 199.2833 160.8141 14.62483386889318
BEESAT-1                
1 35933U 09051C   26169.68405162  .00000636  00000+0  13739-3 0  9994
2 35933  98.3962  77.2309 0004309 211.2918 148.8026 14.61722602889409
ITUPSAT1                
1 35935U 09051E   26169.19666220  .00000591  00000+0  13197-3 0  9994
2 35935  98.4047  75.9267 0006285 230.1057 129.9590 14.60442029888881
XIWANG-1 (HOPE-1)       
1 36122U 09072B   26169.68786532  .00000218  00000+0  68803-3 0  9999
2 36122 100.4033 123.4966 0006887 227.6356 132.4175 13.16439975793200
O/OREOS (USA 219)       
1 37224U 10062C   26169.13372697  .00001822  00000+0  17759-3 0  9993
2 37224  71.9713  78.1955 0012568  61.0005 299.2424 14.93748266116782
JUGNU                   
1 37839U 11058B   26169.70142228  .00000394  00000+0  66297-4 0  9994
2 37839  19.9619 299.2304 0018627  92.8225 295.0564 14.13777162759245
SRMSAT                  
1 37841U 11058D   26169.37117840  .00000354  00000+0  48168-4 0  9995
2 37841  19.9726  52.3001 0011756 216.7081 303.9733 14.11575778757985
STRAND-1                
1 39090U 13009E   26169.72693088  .00000194  00000+0  79602-4 0  9992
2 39090  98.3923 349.9234 0007804 220.1282 139.9329 14.37163972697288
ZACUBE-1 (TSHEPISOSAT)  
1 39417U 13066B   26169.34046199  .00002374  00000+0  18681-3 0  9992
2 39417  97.8077 131.6833 0040949 243.7163 115.9851 15.01194004680909
GOMX-1                  
1 39430U 13066Q   26169.75210809  .00001731  00000+0  26398-3 0  9993
2 39430  97.6474  10.1158 0130156  72.5498 288.9888 14.69466170670148
